TEIKYOSAT-4 (OORURI)    
1 49396U 21102B   26068.67534185  .00002438  00000+0  15740-3 0  9994
2 49396  97.3797 101.9931 0010345 276.5421  83.4630 15.09119208237719
STARLINK-4766           
1 53840U 22114Y   26068.77499218 -.00000959  00000+0 -42169-4 0  9999
2 53840  53.2167 293.7971 0001443 103.3549 256.7604 15.08839965192984
